STARLINK-36730          
1 67874U 26034AA  26079.90347044  .00413578  00000+0  19893-2 0  9991
2 67874  53.1582 154.9448 0003041  60.7240 299.4086 15.80991963  5712
STARLINK-36727          
1 67875U 26034AB  26079.58662589  .00317114  00000+0  15484-2 0  9991
2 67875  53.1579 156.5237 0001469  56.0262 304.0900 15.80921824  5668
STARLINK-36743          
1 67876U 26034AC  26079.58587435  .00193507  00000+0  95994-3 0  9991
2 67876  53.1586 156.5180 0001383  95.9031 264.2149 15.80922288  5662
STARLINK-36784          
1 67877U 26034AD  26079.91668981 -.01953924  00000+0 -18400-1 0  9990
2 67877  53.1586 154.9669 0000891  73.6681 318.7759 15.69492958  5669
STARLINK-36689          
1 67878U 26034AE  26079.58437494  .00272245  00000+0  13350-2 0  9994
2 67878  53.1586 156.5088 0001553  68.8688 291.2500 15.80951536  5666
STARLINK-36818          
1 67879U 26035A   26079.75229243  .00263145  00000+0  17028-2 0  9991
2 67879  97.2876  12.6766 0001693 123.5463 236.5964 15.75304681  5582
STARLINK-36821          
1 67880U 26035B   26079.74947326  .00309317  00000+0  19906-2 0  9990
2 67880  97.2861  12.6799 0003931  85.6981 274.4733 15.75300082  5580
STARLINK-36808          
1 67881U 26035C   26079.53854299  .00227323  00000+0  11524-2 0  9998
2 67881  97.2898  12.5054 0001482  81.2731 278.8705 15.80901363  5557
STARLINK-36817          
1 67882U 26035D   26079.91668981 -.00064695  00000+0 -43561-3 0  9992
2 67882  97.2859  12.9012 0001506  86.5905 249.1174 15.75218293  5560
STARLINK-36856          
1 67883U 26035E   26079.91668981 -.00041139  00000+0 -27630-3 0  9990
2 67883  97.2861  12.8967 0001239  92.3633 227.3858 15.75187824  5560
STARLINK-36842          
1 67884U 26035F   26079.74664827  .00354267  00000+0  22601-2 0  9996
2 67884  97.2866  12.6823 0004139  86.0349 274.1390 15.75378467  5589
STARLINK-36826          
1 67885U 26035G   26079.91668981 -.00054538  00000+0 -36706-3 0  9993
2 67885  97.2868  12.8834 0001251  91.6305 202.1167 15.75193288  5569
